[{"OBJECT_NAME":"STARLINK-3841","OBJECT_ID":"2022-045AQ","EPOCH":"2026-03-09T15:29:47.908032","MEAN_MOTION":15.08835596,"ECCENTRICITY":0.0001572,"INCLINATION":53.2196,"RA_OF_ASC_NODE":189.32,"ARG_OF_PERICENTER":100.5951,"MEAN_ANOMALY":259.5219,"EPHEMERIS_TYPE":0,"CLASSIFICATION_TYPE":"U","NORAD_CAT_ID":52369,"ELEMENT_SET_NO":999,"REV_AT_EPOCH":21591,"BSTAR":6.1047e-5,"MEAN_MOTION_DOT":6.84e-6,"MEAN_MOTION_DDOT":0},{"OBJECT_NAME":"COSMOS 886 DEB","OBJECT_ID":"1976-126BB","EPOCH":"2026-03-09T11:56:28.762368","MEAN_MOTION":13.92875098,"ECCENTRICITY":0.05307589,"INCLINATION":65.7939,"RA_OF_ASC_NODE":106.2794,"ARG_OF_PERICENTER":113.8415,"MEAN_ANOMALY":251.9212,"EPHEMERIS_TYPE":0,"CLASSIFICATION_TYPE":"U","NORAD_CAT_ID":9961,"ELEMENT_SET_NO":999,"REV_AT_EPOCH":38673,"BSTAR":0.00065937265,"MEAN_MOTION_DOT":2.683e-5,"MEAN_MOTION_DDOT":0}]
